COSMOS 1812             
1 17295U 87003A   17345.92475145  .00000553  00000-0  28191-4 0  9997
2 17295  82.5129 330.1163 0002219 209.4206 150.6901 15.14754211685638
